USA 119                 
1 23893U 96029A   26068.41677233  .00001640  00000+0  29026-3 0  9998
2 23893  63.3196  93.1190 0846389  47.6314 319.3281 13.45886981 91843
STARLINK-35468          
1 66118U 25237E   26068.20822489  .00043009  00000+0  14561-2 0  9992
2 66118  53.1601  42.0915 0001192  74.2458 285.8674 15.30193843 22533
